{
    "links": {
        "self": "http://www.neowsapp.com/rest/v1/neo/3608475?api_key=iIulBulltgU6a56xZRHN4H3l9WmuAYTsLGpBGhQ2"
    },
    "id": "3608475",
    "neo_reference_id": "3608475",
    "name": "(2012 RB3)",
    "designation": "2012 RB3",
    "nasa_jpl_url": "http://ssd.jpl.nasa.gov/sbdb.cgi?sstr=3608475",
    "absolute_magnitude_h": 20.5,
    "estimated_diameter": {
        "kilometers": {
            "estimated_diameter_min": 0.2111324448,
            "estimated_diameter_max": 0.4721064988
        },
        "meters": {
            "estimated_diameter_min": 211.1324447897,
            "estimated_diameter_max": 472.1064988055
        },
        "miles": {
            "estimated_diameter_min": 0.1311915784,
            "estimated_diameter_max": 0.2933532873
        },
        "feet": {
            "estimated_diameter_min": 692.6917701639,
            "estimated_diameter_max": 1548.9058855411
        }
    },
    "is_potentially_hazardous_asteroid": false,
    "close_approach_data": [
        {
            "close_approach_date": "2012-08-30",
            "close_approach_date_full": "2012-Aug-30 04:01",
            "epoch_date_close_approach": 1346299260000,
            "relative_velocity": {
                "kilometers_per_second": "24.2274276422",
                "kilometers_per_hour": "87218.7395118059",
                "miles_per_hour": "54194.3328927663"
            },
            "miss_distance": {
                "astronomical": "0.2427399014",
                "lunar": "94.4258216446",
                "kilometers": "36313372.213450018",
                "miles": "22564083.1829975284"
            },
            "orbiting_body": "Earth"
        },
        {
            "close_approach_date": "2015-09-16",
            "close_approach_date_full": "2015-Sep-16 19:19",
            "epoch_date_close_approach": 1442431140000,
            "relative_velocity": {
                "kilometers_per_second": "29.4762129009",
                "kilometers_per_hour": "106114.3664433815",
                "miles_per_hour": "65935.3406381111"
            },
            "miss_distance": {
                "astronomical": "0.3794262541",
                "lunar": "147.5968128449",
                "kilometers": "56761359.435438767",
                "miles": "35269873.2674263046"
            },
            "orbiting_body": "Earth"
        }
    ],
    "orbital_data": {
        "orbit_id": "10",
        "orbit_determination_date": "2017-04-06 08:49:04",
        "first_observation_date": "2012-09-07",
        "last_observation_date": "2012-09-22",
        "data_arc_in_days": 15,
        "observations_used": 43,
        "orbit_uncertainty": "8",
        "minimum_orbit_intersection": ".155249",
        "jupiter_tisserand_invariant": "3.231",
        "epoch_osculation": "2456181.5",
        "eccentricity": ".4900420286323307",
        "semi_major_axis": "2.120687866951805",
        "inclination": "45.66903206994628",
        "ascending_node_longitude": "164.9571962655343",
        "orbital_period": "1128.011570386371",
        "perihelion_distance": "1.081461682534772",
        "perihelion_argument": "139.9669022393033",
        "aphelion_distance": "3.159914051368837",
        "perihelion_time": "2456128.390369685046",
        "mean_anomaly": "16.94970815488582",
        "mean_motion": ".319145662554411",
        "equinox": "J2000",
        "orbit_class": {
            "orbit_class_type": "AMO",
            "orbit_class_description": "Near-Earth asteroid orbits similar to that of 1221 Amor",
            "orbit_class_range": "1.017 AU < q (perihelion) < 1.3 AU"
        }
    },
    "is_sentry_object": false
}